GSAT0220 (GALILEO 24)   
1 43567U 18060D   24282.05200459 -.00000079  00000+0  00000+0 0  9998
2 43567  57.3017 358.4368 0004008 261.8115  98.1990  1.70476155 38657
BEIDOU-3 M13            
1 43622U 18072A   24282.03829930  .00000027  00000+0  00000+0 0  9994
2 43622  56.0873  83.1181 0003898 301.5503  58.4273  1.86231333 41166
BEIDOU-3 M14            
1 43623U 18072B   24282.97767083  .00000035  00000+0  00000+0 0  9997
2 43623  56.0897  83.0801 0002520   4.2401 355.7793  1.86231267 41173
GPS BIII-1              
1 43873U 18109A   24282.78948580  .00000052  00000+0  00000+0 0  9996
2 43873  55.3426 116.5376 0031151 191.8111 182.2276  2.00560557 42716
METEOR-M2 2             
1 44387U 19038A   24283.54601378  .00000850  00000+0  39006-3 0  9993
2 44387  98.8424 253.3016 0001694  37.6874 322.4423 14.24010907273660
GPS BIII-2              
1 44506U 19056A   24283.35553608 -.00000078  00000+0  00000+0 0  9998
2 44506  55.8314 355.5704 0047874 191.8962 136.1098  2.00557117 37716
BEIDOU-3 M23            
1 44542U 19061A   24282.28113049  .00000021  00000+0  00000+0 0  9993
2 44542  54.4310 203.5408 0008624 359.9563   0.0735  1.86229424 34303
BEIDOU-3 M24            
1 44543U 19061B   24282.60351913  .00000020  00000+0  00000+0 0  9993
2 44543  54.4296 203.4989 0005599 348.9496 139.7966  1.86229618 34302
BEIDOU-3 M21            
1 44793U 19078A   24283.19994139 -.00000042  00000+0  00000+0 0  9991
2 44793  54.4744 321.4011 0004621  14.9997 345.0737  1.86232149 33170
BEIDOU-3 M22            
1 44794U 19078B   24282.79249672 -.00000044  00000+0  00000+0 0  9994
2 44794  54.4482 321.3889 0002746 357.7675   2.2908  1.86232633 33179
ELEKTRO-L 3             
1 44903U 19095A   24283.41734424 -.00000090  00000+0  00000+0 0  9990
2 44903   0.0521 332.5155 0001019 258.2514  14.0589  1.00272547 17522
GPS BIII-3              
1 45854U 20041A   24282.48136285 -.00000024  00000+0  00000+0 0  9993
2 45854  56.2190  52.9844 0048320 194.4360 158.6406  2.00571136 31668
COSMOS 2547             
1 46805U 20075A   24283.27291282  .00000027  00000+0  00000+0 0  9996
2 46805  64.5986 213.0513 0007630 239.7684 120.1747  2.13102733 30785
GPS BIII-4              
1 46826U 20078A   24282.03157227  .00000030  00000+0  00000+0 0  9999
2 46826  54.1418 235.8248 0049904 199.0119 164.3269  2.00560467 29135
GSAT0223 (GALILEO 27)   
1 49809U 21116A   24282.45093972 -.00000079  00000+0  00000+0 0  9993
2 49809  57.2921 358.3196 0003932 212.4613 122.8912  1.70476337 17662
GSAT0224 (GALILEO 28)   
1 49810U 21116B   24283.18243747 -.00000078  00000+0  00000+0 0  9992
2 49810  57.2928 358.2983 0003206 210.0330 326.7785  1.70476355 17706
GOES 18                 
1 51850U 22021A   24283.46854546  .00000104  00000+0  00000+0 0  9990
2 51850   0.0119  78.8395 0000109 127.3631 204.0757  1.00271166   419
COSMOS 2557 (706K)      
1 52984U 22075A   24283.43872254 -.00000041  00000+0  00000+0 0  9992
2 52984  64.6237 336.0992 0013349 273.8366  86.0810  2.13102215 17586
METEOR-M2 3             
1 57166U 23091A   24283.58312743  .00000217  00000+0  11399-3 0  9997
2 57166  98.6998 337.1612 0004590 145.8252 214.3223 14.23935138 66901
COSMOS 2569 (703K)      
1 57517U 23114A   24283.11958817  .00000066  00000+0  00000+0 0  9995
2 57517  64.9700  93.4520 0008589 292.9194  67.0210  2.13103983  9131
METEOR-M2 4             
1 59051U 24039A   24283.45495864  .00000342  00000+0  17317-3 0  9992
2 59051  98.6129 242.6098 0007589 145.1920 214.9756 14.22280042 31732
GSAT0225 (GALILEO 29)   
1 59598U 24079A   24282.32730543  .00000058  00000+0  00000+0 0  9994
2 59598  54.7571 118.3427 0002451 160.1761 202.6645  1.70474510  2801
GSAT0227 (GALILEO 30)   
1 59600U 24079C   24281.91954337  .00000057  00000+0  00000+0 0  9990
2 59600  54.7523 118.3540 0003647 110.1590 249.9549  1.70474426  2848
